KUIPER-00035            
1 63748U 25088AA  25245.97445395 -.00001566  00000+0 -17623-3 0  9996
2 63748  51.9003 224.1717 0005401 171.0599 189.0461 14.79926463 19712
KUIPER-00037            
1 63749U 25088AB  25245.36826398  .00002238  00000+0  32225-3 0  9996
2 63749  51.8995 225.8209 0006974 111.3995 248.7712 14.79974835 20427
KUIPER-00038            
1 63750U 25088AC  25245.91668981 -.01172485  00000+0 -10737+0 0  9996
2 63750  51.9120 208.9966 0005527 167.2589 216.7460 14.97380238  5082
KUIPER-00039            
1 64500U 25134A   25245.91668981 -.00219223  00000+0 -10584-1 0  9995
2 64500  51.8809 347.5171 0011382  21.1968 148.3073 15.19101562  4829
KUIPER-00040            
1 64501U 25134B   25245.91668981 -.00957387  00000+0 -11529+0 0  9994
2 64501  51.9119 354.7192 0017385  13.1251  98.7662 14.86291464  5561
KUIPER-00041            
1 64502U 25134C   25245.91668981 -.01477524  00000+0 -20017+0 0  9998
2 64502  51.8982 355.9474 0013802  10.1354 165.9423 14.81868295  4979
KUIPER-00042            
1 64503U 25134D   25245.91668981 -.00031600  00000+0 -29446-2 0  9997
2 64503  51.8906 352.4678 0014074  17.4500 221.2778 14.93631753  3214
KUIPER-00043            
1 64504U 25134E   25245.91668981 -.01131153  00000+0 -60755-1 0  9990
2 64504  51.8806 348.3142 0007464  11.2226 166.2425 15.17223542  5428
